start=new Date('2022-06-22T00:00:00.000Z').valueOf();
sats=[{"ARG_OF_PERICENTER":"42.7201","COUNTRY_CODE":"US","SITE":"AFETR","EPHEMERIS_TYPE":"0","MEAN_ELEMENT_THEORY":"SGP4","REF_FRAME":"TEME","MEAN_MOTION_DDOT":"0.0000000000000","MEAN_MOTION_DOT":"-0.00721915","REV_AT_EPOCH":"130","GP_ID":"206584342","CENTER_NAME":"EARTH","TIME_SYSTEM":"UTC","APOAPSIS":"427.186","DECAY_DATE":null,"PERIAPSIS":"425.035","BSTAR":"-0.01531300000000","OBJECT_NAME":"STARLINK-4002","TLE_LINE2":"2 52612  53.2174 253.0876 0001581  42.7201  86.2987 15.46795166  1306","MEAN_MOTION":"15.46795166","ELEMENT_SET_NO":"999","PERIOD":"93.096","SEMIMAJOR_AXIS":"6804.245","NORAD_CAT_ID":"52612","RA_OF_ASC_NODE":"253.0876","INCLINATION":"53.2174","OBJECT_TYPE":"PAYLOAD","RCS_SIZE":"LARGE","MEAN_ANOMALY":"86.2987","EPOCH":"2022-06-21T22:00:00.999936","CLASSIFICATION_TYPE":"U","TLE_LINE1":"1 52612U 22052Q   22172.91667824 -.00721915  00000-0 -15313-1 0  9995","OBJECT_ID":"2022-052Q","ECCENTRICITY":"0.00015810","FILE":"3499203","LAUNCH_DATE":"2022-05-14"},{"EPHEMERIS_TYPE":"0","MEAN_ELEMENT_THEORY":"SGP4","SITE":"AFETR","ARG_OF_PERICENTER":"23.0927","COUNTRY_CODE":"US","CENTER_NAME":"EARTH","GP_ID":"206585036","MEAN_MOTION_DDOT":"0.0000000000000","REV_AT_EPOCH":"130","MEAN_MOTION_DOT":"-0.00009559","REF_FRAME":"TEME","BSTAR":"-0.00006377500000","OBJECT_NAME":"STARLINK-3921","APOAPSIS":"351.317","DECAY_DATE":null,"PERIAPSIS":"348.263","TIME_SYSTEM":"UTC","PERIOD":"91.534","ELEMENT_SET_NO":"999","TLE_LINE2":"2 52613  53.2134 251.1586 0002270  23.0927 298.6363 15.73189522  1303","MEAN_MOTION":"15.73189522","MEAN_ANOMALY":"298.6363","EPOCH":"2022-06-21T22:00:00.999936","RA_OF_ASC_NODE":"251.1586","INCLINATION":"53.2134","OBJECT_TYPE":"PAYLOAD","RCS_SIZE":"LARGE","SEMIMAJOR_AXIS":"6727.925","NORAD_CAT_ID":"52613","TLE_LINE1":"1 52613U 22052R   22172.91667824 -.00009559  00000-0 -63775-4 0  9997","CLASSIFICATION_TYPE":"U","LAUNCH_DATE":"2022-05-14","FILE":"3499203","ECCENTRICITY":"0.00022700","OBJECT_ID":"2022-052R"},{"ARG_OF_PERICENTER":"18.0594","COUNTRY_CODE":"US","SITE":"AFETR","EPHEMERIS_TYPE":"0","MEAN_ELEMENT_THEORY":"SGP4","REF_FRAME":"TEME","MEAN_MOTION_DDOT":"0.0000000000000","MEAN_MOTION_DOT":"0.00015058","REV_AT_EPOCH":"130","GP_ID":"206584780","CENTER_NAME":"EARTH","TIME_SYSTEM":"UTC","APOAPSIS":"351.384","DECAY_DATE":null,"PERIAPSIS":"348.343","BSTAR":"0.00011168000000","OBJECT_NAME":"STARLINK-3982","MEAN_MOTION":"15.73163831","TLE_LINE2":"2 52614  53.2126 251.1615 0002260  18.0594 303.0468 15.73163831  1303","ELEMENT_SET_NO":"999","PERIOD":"91.535","SEMIMAJOR_AXIS":"6727.998","NORAD_CAT_ID":"52614","INCLINATION":"53.2126","RA_OF_ASC_NODE":"251.1615","OBJECT_TYPE":"PAYLOAD","RCS_SIZE":"LARGE","MEAN_ANOMALY":"303.0468","EPOCH":"2022-06-21T22:00:00.999936","CLASSIFICATION_TYPE":"U","TLE_LINE1":"1 52614U 22052S   22172.91667824  .00015058  00000-0  11168-3 0  9995","ECCENTRICITY":"0.00022600","OBJECT_ID":"2022-052S","FILE":"3499203","LAUNCH_DATE":"2022-05-14"},{"OBJECT_NAME":"STARLINK-4011","BSTAR":"-0.03433000000000","APOAPSIS":"486.569","DECAY_DATE":null,"PERIAPSIS":"484.604","TIME_SYSTEM":"UTC","CENTER_NAME":"EARTH","GP_ID":"206584524","REV_AT_EPOCH":"130","MEAN_MOTION_DOT":"-0.00843163","MEAN_MOTION_DDOT":"0.0000000000000","REF_FRAME":"TEME","MEAN_ELEMENT_THEORY":"SGP4","EPHEMERIS_TYPE":"0","SITE":"AFETR","COUNTRY_CODE":"US","ARG_OF_PERICENTER":"67.8462","LAUNCH_DATE":"2022-05-14","FILE":"3499203","OBJECT_ID":"2022-052T","ECCENTRICITY":"0.00014310","TLE_LINE1":"1 52615U 22052T   22172.91667824 -.00843163  00000-0 -34330-1 0  9998","CLASSIFICATION_TYPE":"U","EPOCH":"2022-06-21T22:00:00.999936","MEAN_ANOMALY":"168.2307","RCS_SIZE":"LARGE","OBJECT_TYPE":"PAYLOAD","INCLINATION":"53.2174","RA_OF_ASC_NODE":"255.5656","NORAD_CAT_ID":"52615","SEMIMAJOR_AXIS":"6863.721","PERIOD":"94.319","ELEMENT_SET_NO":"999","MEAN_MOTION":"15.26733717","TLE_LINE2":"2 52615  53.2174 255.5656 0001431  67.8462 168.2307 15.26733717  1302"},{"BSTAR":"-0.00027243000000","OBJECT_NAME":"STARLINK-4015","APOAPSIS":"351.286","DECAY_DATE":null,"PERIAPSIS":"348.229","TIME_SYSTEM":"UTC","CENTER_NAME":"EARTH","GP_ID":"206584688","MEAN_MOTION_DDOT":"0.0000000000000","REV_AT_EPOCH":"130","MEAN_MOTION_DOT":"-0.00038686","REF_FRAME":"TEME","EPHEMERIS_TYPE":"0","MEAN_ELEMENT_THEORY":"SGP4","SITE":"AFETR","ARG_OF_PERICENTER":"23.3331","COUNTRY_CODE":"US","LAUNCH_DATE":"2022-05-14","FILE":"3499203","OBJECT_ID":"2022-052U","ECCENTRICITY":"0.00022720","TLE_LINE1":"1 52616U 22052U   22172.91667824 -.00038686  00000-0 -27243-3 0  9992","CLASSIFICATION_TYPE":"U","MEAN_ANOMALY":"298.9445","EPOCH":"2022-06-21T22:00:00.999936","RA_OF_ASC_NODE":"251.1595","INCLINATION":"53.2126","RCS_SIZE":"LARGE","OBJECT_TYPE":"PAYLOAD","SEMIMAJOR_AXIS":"6727.893","NORAD_CAT_ID":"52616","PERIOD":"91.533","ELEMENT_SET_NO":"999","TLE_LINE2":"2 52616  53.2126 251.1595 0002272  23.3331 298.9445 15.73200836  1307","MEAN_MOTION":"15.73200836"},{"SEMIMAJOR_AXIS":"6727.912","NORAD_CAT_ID":"52617","INCLINATION":"53.2124","RA_OF_ASC_NODE":"251.1514","OBJECT_TYPE":"PAYLOAD","RCS_SIZE":"LARGE","MEAN_ANOMALY":"315.1057","EPOCH":"2022-06-21T22:00:00.999936","MEAN_MOTION":"15.73193993","TLE_LINE2":"2 52617  53.2124 251.1514 0002996  10.1108 315.1057 15.73193993  1302","ELEMENT_SET_NO":"999","PERIOD":"91.534","ECCENTRICITY":"0.00029960","OBJECT_ID":"2022-052V","FILE":"3499203","LAUNCH_DATE":"2022-05-14","CLASSIFICATION_TYPE":"U","TLE_LINE1":"1 52617U 22052V   22172.91667824  .00019579  00000-0  14362-3 0  9999","REF_FRAME":"TEME","MEAN_MOTION_DDOT":"0.0000000000000","MEAN_MOTION_DOT":"0.00019579","REV_AT_EPOCH":"130","GP_ID":"206584971","CENTER_NAME":"EARTH","ARG_OF_PERICENTER":"10.1108","COUNTRY_CODE":"US","SITE":"AFETR","EPHEMERIS_TYPE":"0","MEAN_ELEMENT_THEORY":"SGP4","TIME_SYSTEM":"UTC","APOAPSIS":"351.793","DECAY_DATE":null,"PERIAPSIS":"347.762","BSTAR":"0.00014362000000","OBJECT_NAME":"STARLINK-3996"},{"OBJECT_ID":"2022-052W","ECCENTRICITY":"0.00022400","FILE":"3499203","LAUNCH_DATE":"2022-05-14","CLASSIFICATION_TYPE":"U","TLE_LINE1":"1 52618U 22052W   22172.91667824 -.00085076  00000-0 -60707-3 0  9991","SEMIMAJOR_AXIS":"6727.816","NORAD_CAT_ID":"52618","RA_OF_ASC_NODE":"251.1574","INCLINATION":"53.2125","RCS_SIZE":"LARGE","OBJECT_TYPE":"PAYLOAD","MEAN_ANOMALY":"300.3637","EPOCH":"2022-06-21T22:00:00.999936","TLE_LINE2":"2 52618  53.2125 251.1574 0002240  22.5237 300.3637 15.73227945  1307","MEAN_MOTION":"15.73227945","ELEMENT_SET_NO":"999","PERIOD":"91.532","TIME_SYSTEM":"UTC","DECAY_DATE":null,"PERIAPSIS":"348.173","APOAPSIS":"351.188","BSTAR":"-0.00060707000000","OBJECT_NAME":"STARLINK-3983","REF_FRAME":"TEME","MEAN_MOTION_DDOT":"0.0000000000000","MEAN_MOTION_DOT":"-0.00085076","REV_AT_EPOCH":"130","GP_ID":"206584435","CENTER_NAME":"EARTH","ARG_OF_PERICENTER":"22.5237","COUNTRY_CODE":"US","SITE":"AFETR","EPHEMERIS_TYPE":"0","MEAN_ELEMENT_THEORY":"SGP4"},{"GP_ID":"206584871","CENTER_NAME":"EARTH","REF_FRAME":"TEME","MEAN_MOTION_DDOT":"0.0000000000000","MEAN_MOTION_DOT":"-0.00046444","REV_AT_EPOCH":"130","EPHEMERIS_TYPE":"0","MEAN_ELEMENT_THEORY":"SGP4","ARG_OF_PERICENTER":"22.8095","COUNTRY_CODE":"US","SITE":"AFETR","APOAPSIS":"351.401","DECAY_DATE":null,"PERIAPSIS":"348.069","BSTAR":"-0.00032813000000","OBJECT_NAME":"STARLINK-3741","TIME_SYSTEM":"UTC","MEAN_ANOMALY":"303.0380","EPOCH":"2022-06-21T22:00:00.999936","SEMIMAJOR_AXIS":"6727.870","NORAD_CAT_ID":"52619","INCLINATION":"53.2133","RA_OF_ASC_NODE":"251.1500","RCS_SIZE":"LARGE","OBJECT_TYPE":"PAYLOAD","ELEMENT_SET_NO":"999","PERIOD":"91.533","MEAN_MOTION":"15.73208836","TLE_LINE2":"2 52619  53.2133 251.1500 0002476  22.8095 303.0380 15.73208836  1305","FILE":"3499203","LAUNCH_DATE":"2022-05-14","ECCENTRICITY":"0.00024760","OBJECT_ID":"2022-052X","TLE_LINE1":"1 52619U 22052X   22172.91667824 -.00046444  00000-0 -32813-3 0  9995","CLASSIFICATION_TYPE":"U"},{"GP_ID":"206584343","CENTER_NAME":"EARTH","REF_FRAME":"TEME","MEAN_MOTION_DDOT":"0.0000000000000","REV_AT_EPOCH":"130","MEAN_MOTION_DOT":"-0.00843519","EPHEMERIS_TYPE":"0","MEAN_ELEMENT_THEORY":"SGP4","ARG_OF_PERICENTER":"60.9777","COUNTRY_CODE":"US","SITE":"AFETR","DECAY_DATE":null,"PERIAPSIS":"483.880","APOAPSIS":"485.901","BSTAR":"-0.03410300000000","OBJECT_NAME":"STARLINK-3975","TIME_SYSTEM":"UTC","MEAN_ANOMALY":"186.6954","EPOCH":"2022-06-21T22:00:00.999936","SEMIMAJOR_AXIS":"6863.026","NORAD_CAT_ID":"52620","RA_OF_ASC_NODE":"255.5718","INCLINATION":"53.2174","RCS_SIZE":"LARGE","OBJECT_TYPE":"PAYLOAD","ELEMENT_SET_NO":"999","PERIOD":"94.305","TLE_LINE2":"2 52620  53.2174 255.5718 0001472  60.9777 186.6954 15.26965861  1304","MEAN_MOTION":"15.26965861","FILE":"3499203","LAUNCH_DATE":"2022-05-14","ECCENTRICITY":"0.00014720","OBJECT_ID":"2022-052Y","TLE_LINE1":"1 52620U 22052Y   22172.91667824 -.00843519  00000-0 -34103-1 0  9997","CLASSIFICATION_TYPE":"U"},{"LAUNCH_DATE":"2022-05-14","FILE":"3499203","OBJECT_ID":"2022-052Z","ECCENTRICITY":"0.00023810","TLE_LINE1":"1 52621U 22052Z   22172.91667824  .00017922  00000-0  13202-3 0  9996","CLASSIFICATION_TYPE":"U","EPOCH":"2022-06-21T22:00:00.999936","MEAN_ANOMALY":"307.4388","RCS_SIZE":"LARGE","OBJECT_TYPE":"PAYLOAD","INCLINATION":"53.2133","RA_OF_ASC_NODE":"251.1463","NORAD_CAT_ID":"52621","SEMIMAJOR_AXIS":"6727.989","PERIOD":"91.535","ELEMENT_SET_NO":"999","MEAN_MOTION":"15.73167019","TLE_LINE2":"2 52621  53.2133 251.1463 0002381  20.2054 307.4388 15.73167019  1301","OBJECT_NAME":"STARLINK-3984","BSTAR":"0.00013202000000","APOAPSIS":"351.456","DECAY_DATE":null,"PERIAPSIS":"348.252","TIME_SYSTEM":"UTC","CENTER_NAME":"EARTH","GP_ID":"206585037","REV_AT_EPOCH":"130","MEAN_MOTION_DOT":"0.00017922","MEAN_MOTION_DDOT":"0.0000000000000","REF_FRAME":"TEME","MEAN_ELEMENT_THEORY":"SGP4","EPHEMERIS_TYPE":"0","SITE":"AFETR","COUNTRY_CODE":"US","ARG_OF_PERICENTER":"20.2054"}];
